CCSDS_OEM_VERS = 1.0
CREATION_DATE  = 2017-05-11T11:30:39
ORIGINATOR     = GMAT USER

META_START
OBJECT_NAME          = MOPSSat_alt_35785_km_RAAN_180_013
OBJECT_ID            = SatId
CENTER_NAME          = Earth
REF_FRAME            = EME2000
TIME_SYSTEM          = UTC
START_TIME           = 2017-01-01T00:00:00.000
USEABLE_START_TIME   = 2017-01-01T00:00:00.000
USEABLE_STOP_TIME    = 2017-01-02T00:00:00.000
STOP_TIME            = 2017-01-02T00:00:00.000
INTERPOLATION        = Lagrange
INTERPOLATION_DEGREE = 7 
META_STOP


                                                                                   

2017-01-01T13:26:40.000   3.902702785088906e+04   1.571428270965314e+04  -2.773449854749722e+03  -1.163479263189546e+00   2.802825373810123e+00  -4.942325479355954e-01
2017-01-01T13:26:50.000   3.901538268205180e+04   1.574230678173710e+04  -2.778391442213239e+03  -1.165554441514011e+00   2.801988892096840e+00  -4.940849181510881e-01
2017-01-01T13:27:00.000   3.900371676450482e+04   1.577032248161680e+04  -2.783331552075992e+03  -1.167628999750819e+00   2.801150920429985e+00  -4.939370255738602e-01
2017-01-01T13:27:10.000   3.899203010440934e+04   1.579832979450407e+04  -2.788270181729695e+03  -1.169702936805096e+00   2.800311459252318e+00  -4.937888702820601e-01
2017-01-01T13:27:20.000   3.898032270794993e+04   1.582632870558234e+04  -2.793207328561047e+03  -1.171776251579859e+00   2.799470509008275e+00  -4.936404523541321e-01
2017-01-01T13:27:30.000   3.896859458134984e+04   1.585431919997421e+04  -2.798142989946030e+03  -1.173848942973625e+00   2.798628070145071e+00  -4.934917718690113e-01
2017-01-01T13:27:40.000   3.895684573083474e+04   1.588230126282629e+04  -2.803077163264853e+03  -1.175921009886687e+00   2.797784143110090e+00  -4.933428289056622e-01
2017-01-01T13:27:50.000   3.894507616278958e+04   1.591027487894131e+04  -2.808009845837095e+03  -1.177992451193876e+00   2.796938728362159e+00  -4.931936235450687e-01
2017-01-01T13:28:00.000   3.893328588356887e+04   1.593824003322414e+04  -2.812941035000338e+03  -1.180063265777585e+00   2.796091826357923e+00  -4.930441558678297e-01
2017-01-01T13:28:10.000   3.892147489956718e+04   1.596619671051580e+04  -2.817870728080918e+03  -1.182133452515482e+00   2.795243437556892e+00  -4.928944259550500e-01
2017-01-01T13:28:20.000   3.890964321694742e+04   1.599414489623669e+04  -2.822798922507324e+03  -1.184203010328136e+00   2.794393562401948e+00  -4.927444338848994e-01
2017-01-01T13:28:30.000   3.889779084191164e+04   1.602208457574496e+04  -2.827725615697075e+03  -1.186271938131505e+00   2.793542201338775e+00  -4.925941797360415e-01
2017-01-01T13:28:40.000   3.888591778063997e+04   1.605001573448205e+04  -2.832650805082377e+03  -1.188340234847720e+00   2.792689354811486e+00  -4.924436635868637e-01
2017-01-01T13:28:50.000   3.887402403944155e+04   1.607793835760980e+04  -2.837574488046131e+03  -1.190407899378205e+00   2.791835023273456e+00  -4.922928855173880e-01
2017-01-01T13:29:00.000   3.886210962464331e+04   1.610585243028017e+04  -2.842496661969504e+03  -1.192474930623654e+00   2.790979207179344e+00  -4.921418456078617e-01
2017-01-01T13:29:10.000   3.885017454258885e+04   1.613375793763489e+04  -2.847417324231849e+03  -1.194541327484001e+00   2.790121906985001e+00  -4.919905439387435e-01
2017-01-01T13:29:20.000   3.883821879975587e+04   1.616165486453816e+04  -2.852336472163593e+03  -1.196607088838634e+00   2.789263123155908e+00  -4.918389805921918e-01
2017-01-01T13:29:30.000   3.882624240259909e+04   1.618954319593709e+04  -2.857254103109774e+03  -1.198672213573077e+00   2.788402856155897e+00  -4.916871556500729e-01
2017-01-01T13:29:40.000   3.881424535761166e+04   1.621742291671954e+04  -2.862170214404990e+03  -1.200736700568467e+00   2.787541106451564e+00  -4.915350691947418e-01
2017-01-01T13:29:50.000   3.880222767105474e+04   1.624529401234337e+04  -2.867084803484347e+03  -1.202800548748153e+00   2.786677874492833e+00  -4.913827213056102e-01
2017-01-01T13:30:00.000   3.879018934922778e+04   1.627315646820714e+04  -2.871997867772497e+03  -1.204863757031092e+00   2.785813160732380e+00  -4.912301120625768e-01
2017-01-01T13:30:10.000   3.877813039840777e+04   1.630101026979260e+04  -2.876909404708756e+03  -1.206926324342398e+00   2.784946965621270e+00  -4.910772415452546e-01
2017-01-01T13:30:20.000   3.876605082500260e+04   1.632885540230268e+04  -2.881819411683281e+03  -1.208988249586544e+00   2.784079289619970e+00  -4.909241098349156e-01
2017-01-01T13:30:30.000   3.875395063543799e+04   1.635669185093062e+04  -2.886727886084523e+03  -1.211049531667282e+00   2.783210133190221e+00  -4.907707170130590e-01
2017-01-01T13:30:40.000   3.874182983615642e+04   1.638451960085947e+04  -2.891634825299129e+03  -1.213110169487611e+00   2.782339496794973e+00  -4.906170631613944e-01
2017-01-01T13:30:50.000   3.872968843373632e+04   1.641233863699565e+04  -2.896540226664978e+03  -1.215170161930049e+00   2.781467380906939e+00  -4.904631483633558e-01
2017-01-01T13:31:00.000   3.871752643473253e+04   1.644014894432834e+04  -2.901444087534533e+03  -1.217229507883238e+00   2.780593785997135e+00  -4.903089727020782e-01
2017-01-01T13:31:10.000   3.870534384574000e+04   1.646795050778503e+04  -2.906346405249389e+03  -1.219288206231255e+00   2.779718712539461e+00  -4.901545362612044e-01
2017-01-01T13:31:20.000   3.869314067311434e+04   1.649574331286949e+04  -2.911247177252752e+03  -1.221346255900850e+00   2.778842160990622e+00  -4.899998391213426e-01
2017-01-01T13:31:30.000   3.868091692325179e+04   1.652352734502215e+04  -2.916146400976664e+03  -1.223403655814083e+00   2.777964131810241e+00  -4.898448813636170e-01
2017-01-01T13:31:40.000   3.866867260251717e+04   1.655130258978532e+04  -2.921044073871125e+03  -1.225460404900557e+00   2.777084625455683e+00  -4.896896630687520e-01
2017-01-01T13:31:50.000   3.865640771743697e+04   1.657906903235866e+04  -2.925940193325730e+03  -1.227516502064507e+00   2.776203642395928e+00  -4.895341843195225e-01
2017-01-01T13:32:00.000   3.864412227454043e+04   1.660682665796622e+04  -2.930834756734359e+03  -1.229571946211969e+00   2.775321183100149e+00  -4.893784451987374e-01
2017-01-01T13:32:10.000   3.863181628039485e+04   1.663457545177443e+04  -2.935727761480744e+03  -1.231626736244717e+00   2.774437248040254e+00  -4.892224457896881e-01
2017-01-01T13:32:20.000   3.861948974159734e+04   1.666231539891501e+04  -2.940619204942494e+03  -1.233680871061951e+00   2.773551837690292e+00  -4.890661861760435e-01
2017-01-01T13:32:30.000   3.860714266476129e+04   1.669004648451203e+04  -2.945509084495868e+03  -1.235734349562308e+00   2.772664952525480e+00  -4.889096664416794e-01
2017-01-01T13:32:40.000   3.859477505651212e+04   1.671776869369204e+04  -2.950397397517563e+03  -1.237787170644608e+00   2.771776593021896e+00  -4.887528866706228e-01
2017-01-01T13:32:50.000   3.858238692344361e+04   1.674548201168343e+04  -2.955284141402242e+03  -1.239839333215214e+00   2.770886759653350e+00  -4.885958469465008e-01
2017-01-01T13:33:00.000   3.856997827214671e+04   1.677318642375011e+04  -2.960169313550819e+03  -1.241890836183114e+00   2.769995452893445e+00  -4.884385473529030e-01
2017-01-01T13:33:10.000   3.855754910920955e+04   1.680088191519143e+04  -2.965052911370470e+03  -1.243941678459930e+00   2.769102673215580e+00  -4.882809879733843e-01
2017-01-01T13:33:20.000   3.854509944118716e+04   1.682856847140803e+04  -2.969934932286222e+03  -1.245991858964776e+00   2.768208421090776e+00  -4.881231688910790e-01
2017-01-01T13:33:30.000   3.853262927464634e+04   1.685624607780293e+04  -2.974815373723533e+03  -1.248041376616948e+00   2.767312696990901e+00  -4.879650901892715e-01
2017-01-01T13:33:40.000   3.852013861617048e+04   1.688391471977172e+04  -2.979694233106549e+03  -1.250090230335192e+00   2.766415501389014e+00  -4.878067519514554e-01
2017-01-01T13:33:50.000   3.850762747237064e+04   1.691157438267444e+04  -2.984571507853138e+03  -1.252138419035616e+00   2.765516834760154e+00  -4.876481542614747e-01
2017-01-01T13:34:00.000   3.849509584989708e+04   1.693922505181407e+04  -2.989447195371121e+03  -1.254185941630113e+00   2.764616697582185e+00  -4.874892972036707e-01
2017-01-01T13:34:10.000   3.848254375540172e+04   1.696686671251769e+04  -2.994321293072561e+03  -1.256232797032351e+00   2.763715090333084e+00  -4.873301808624059e-01
2017-01-01T13:34:20.000   3.846997119570569e+04   1.699449934977310e+04  -2.999193798309698e+03  -1.258278984130881e+00   2.762812013502977e+00  -4.871708053241871e-01
2017-01-01T13:34:30.000   3.845737817759676e+04   1.702212294866931e+04  -3.004064708452622e+03  -1.260324501821747e+00   2.761907467579608e+00  -4.870111706750982e-01
2017-01-01T13:34:40.000   3.844476470790453e+04   1.704973749423267e+04  -3.008934020860373e+03  -1.262369348996354e+00   2.761001453053709e+00  -4.868512770017529e-01
2017-01-01T13:34:50.000   3.843213079321040e+04   1.707734297206218e+04  -3.013801732992963e+03  -1.264413524588511e+00   2.760093970398189e+00  -4.866911243876188e-01
2017-01-01T13:35:00.000   3.841947644013655e+04   1.710493936769568e+04  -3.018667842299629e+03  -1.266457027527499e+00   2.759185020088888e+00  -4.865307129166800e-01
2017-01-01T13:35:10.000   3.840680165528093e+04   1.713252666675367e+04  -3.023532346244183e+03  -1.268499856748722e+00   2.758274602599906e+00  -4.863700426726141e-01
2017-01-01T13:35:20.000   3.839410644537855e+04   1.716010485458078e+04  -3.028395242241786e+03  -1.270542011167152e+00   2.757362718415180e+00  -4.862091137408346e-01
2017-01-01T13:35:30.000   3.838139081718244e+04   1.718767391651230e+04  -3.033256527705958e+03  -1.272583489697072e+00   2.756449368019946e+00  -4.860479262069838e-01
2017-01-01T13:35:40.000   3.836865477746259e+04   1.721523383787366e+04  -3.038116200048484e+03  -1.274624291252038e+00   2.755534551900656e+00  -4.858864801569198e-01
